start=new Date('2021-11-18T00:00:00.000Z').valueOf();
sats=[{"MEAN_ELEMENT_THEORY":"SGP4","TLE_LINE1":"1 47889U 21021AF  21321.84970393  .00000989  00000-0  85251-4 0  9995","ELEMENT_SET_NO":"999","ECCENTRICITY":"0.00015460","MEAN_MOTION":"15.06402150","ARG_OF_PERICENTER":"86.8780","MEAN_ANOMALY":"273.2386","CENTER_NAME":"EARTH","EPOCH":"2021-11-17T20:23:34.419552","REV_AT_EPOCH":"3918","MEAN_MOTION_DOT":"0.00000989","PERIOD":"95.592","LAUNCH_DATE":"2021-03-14","SEMIMAJOR_AXIS":"6925.342","COUNTRY_CODE":"US","SITE":"AFETR","REF_FRAME":"TEME","OBJECT_ID":"2021-021AF","PERIAPSIS":"546.136","MEAN_MOTION_DDOT":"0.0000000000000","EPHEMERIS_TYPE":"0","OBJECT_TYPE":"PAYLOAD","BSTAR":"0.00008525100000","APOAPSIS":"548.278","GP_ID":"189975992","INCLINATION":"53.0560","CLASSIFICATION_TYPE":"U","FILE":"3217982","TLE_LINE2":"2 47889  53.0560 132.3727 0001546  86.8780 273.2386 15.06402150 39181","RCS_SIZE":"LARGE","OBJECT_NAME":"STARLINK-2349","RA_OF_ASC_NODE":"132.3727","NORAD_CAT_ID":"47889","TIME_SYSTEM":"UTC","DECAY_DATE":null},{"REF_FRAME":"TEME","OBJECT_ID":"2021-021AG","PERIAPSIS":"455.280","MEAN_MOTION_DDOT":"0.0000000000000","EPHEMERIS_TYPE":"0","PERIOD":"93.730","LAUNCH_DATE":"2021-03-14","SEMIMAJOR_AXIS":"6835.127","SITE":"AFETR","COUNTRY_CODE":"US","MEAN_ANOMALY":"226.9636","CENTER_NAME":"EARTH","EPOCH":"2021-11-17T20:53:07.643904","REV_AT_EPOCH":"3810","MEAN_MOTION_DOT":"0.00228400","MEAN_ELEMENT_THEORY":"SGP4","ELEMENT_SET_NO":"999","TLE_LINE1":"1 47890U 21021AG  21321.87022736  .00228400  00000-0  61765-2 0  9991","ECCENTRICITY":"0.00025050","MEAN_MOTION":"15.36324086","ARG_OF_PERICENTER":"133.1576","NORAD_CAT_ID":"47890","TIME_SYSTEM":"UTC","DECAY_DATE":null,"FILE":"3217982","TLE_LINE2":"2 47890  53.0556 138.0535 0002505 133.1576 226.9636 15.36324086 38101","RCS_SIZE":"LARGE","OBJECT_NAME":"STARLINK-2350","RA_OF_ASC_NODE":"138.0535","BSTAR":"0.00617650000000","APOAPSIS":"458.705","INCLINATION":"53.0556","GP_ID":"189976242","CLASSIFICATION_TYPE":"U","OBJECT_TYPE":"PAYLOAD"},{"OBJECT_ID":"2021-021AH","REF_FRAME":"TEME","EPHEMERIS_TYPE":"0","PERIAPSIS":"545.830","MEAN_MOTION_DDOT":"0.0000000000000","PERIOD":"95.592","LAUNCH_DATE":"2021-03-14","SEMIMAJOR_AXIS":"6925.329","SITE":"AFETR","COUNTRY_CODE":"US","MEAN_ANOMALY":"280.0819","CENTER_NAME":"EARTH","REV_AT_EPOCH":"3914","MEAN_MOTION_DOT":"0.00000780","EPOCH":"2021-11-17T18:57:18.694080","TLE_LINE1":"1 47891U 21021AH  21321.78979970  .00000780  00000-0  71246-4 0  9999","ELEMENT_SET_NO":"999","ECCENTRICITY":"0.00019700","MEAN_ELEMENT_THEORY":"SGP4","ARG_OF_PERICENTER":"80.0392","MEAN_MOTION":"15.06406302","NORAD_CAT_ID":"47891","TIME_SYSTEM":"UTC","DECAY_DATE":null,"FILE":"3217982","RA_OF_ASC_NODE":"142.6252","OBJECT_NAME":"STARLINK-2351","TLE_LINE2":"2 47891  53.0551 142.6252 0001970  80.0392 280.0819 15.06406302 39143","RCS_SIZE":"LARGE","BSTAR":"0.00007124600000","APOAPSIS":"548.559","CLASSIFICATION_TYPE":"U","INCLINATION":"53.0551","GP_ID":"189976991","OBJECT_TYPE":"PAYLOAD"},{"FILE":"3217982","OBJECT_NAME":"STARLINK-2352","RA_OF_ASC_NODE":"142.2543","TLE_LINE2":"2 47892  53.0552 142.2543 0001760  79.9780 280.1407 15.06395709 38993","RCS_SIZE":"LARGE","NORAD_CAT_ID":"47892","TIME_SYSTEM":"UTC","DECAY_DATE":null,"OBJECT_TYPE":"PAYLOAD","BSTAR":"0.00006831800000","APOAPSIS":"548.446","CLASSIFICATION_TYPE":"U","GP_ID":"189977244","INCLINATION":"53.0552","LAUNCH_DATE":"2021-03-14","PERIOD":"95.592","SEMIMAJOR_AXIS":"6925.362","COUNTRY_CODE":"US","SITE":"AFETR","OBJECT_ID":"2021-021AJ","REF_FRAME":"TEME","EPHEMERIS_TYPE":"0","PERIAPSIS":"546.008","MEAN_MOTION_DDOT":"0.0000000000000","TLE_LINE1":"1 47892U 21021AJ  21321.87458799  .00000736  00000-0  68318-4 0  9998","ELEMENT_SET_NO":"999","ECCENTRICITY":"0.00017600","MEAN_ELEMENT_THEORY":"SGP4","ARG_OF_PERICENTER":"79.9780","MEAN_MOTION":"15.06395709","MEAN_ANOMALY":"280.1407","CENTER_NAME":"EARTH","REV_AT_EPOCH":"3899","MEAN_MOTION_DOT":"0.00000736","EPOCH":"2021-11-17T20:59:24.402336"},{"FILE":"3217982","RA_OF_ASC_NODE":"132.2391","OBJECT_NAME":"STARLINK-2354","TLE_LINE2":"2 47894  53.0559 132.2391 0001625  80.6914 279.4259 15.06392461 39089","RCS_SIZE":"LARGE","NORAD_CAT_ID":"47894","TIME_SYSTEM":"UTC","DECAY_DATE":null,"OBJECT_TYPE":"PAYLOAD","BSTAR":"0.00004948500000","APOAPSIS":"548.362","CLASSIFICATION_TYPE":"U","INCLINATION":"53.0559","GP_ID":"189976493","SEMIMAJOR_AXIS":"6925.372","LAUNCH_DATE":"2021-03-14","PERIOD":"95.593","COUNTRY_CODE":"US","SITE":"AFETR","OBJECT_ID":"2021-021AL","REF_FRAME":"TEME","EPHEMERIS_TYPE":"0","PERIAPSIS":"546.111","MEAN_MOTION_DDOT":"0.0000000000000","TLE_LINE1":"1 47894U 21021AL  21321.87920043  .00000455  00000-0  49485-4 0  9998","ELEMENT_SET_NO":"999","ECCENTRICITY":"0.00016250","MEAN_ELEMENT_THEORY":"SGP4","ARG_OF_PERICENTER":"80.6914","MEAN_MOTION":"15.06392461","MEAN_ANOMALY":"279.4259","CENTER_NAME":"EARTH","MEAN_MOTION_DOT":"0.00000455","REV_AT_EPOCH":"3908","EPOCH":"2021-11-17T21:06:02.917152"},{"TIME_SYSTEM":"UTC","NORAD_CAT_ID":"47895","DECAY_DATE":null,"FILE":"3217982","OBJECT_NAME":"STARLINK-2355","RA_OF_ASC_NODE":"132.1868","RCS_SIZE":"LARGE","TLE_LINE2":"2 47895  53.0557 132.1868 0001407  85.2823 274.8326 15.06402330 39119","APOAPSIS":"548.181","BSTAR":"0.00005428100000","CLASSIFICATION_TYPE":"U","GP_ID":"189976743","INCLINATION":"53.0557","OBJECT_TYPE":"PAYLOAD","OBJECT_ID":"2021-021AM","REF_FRAME":"TEME","EPHEMERIS_TYPE":"0","MEAN_MOTION_DDOT":"0.0000000000000","PERIAPSIS":"546.232","COUNTRY_CODE":"US","SITE":"AFETR","PERIOD":"95.592","LAUNCH_DATE":"2021-03-14","SEMIMAJOR_AXIS":"6925.341","CENTER_NAME":"EARTH","MEAN_ANOMALY":"274.8326","REV_AT_EPOCH":"3911","MEAN_MOTION_DOT":"0.00000527","EPOCH":"2021-11-17T21:21:55.410624","ECCENTRICITY":"0.00014070","TLE_LINE1":"1 47895U 21021AM  21321.89022466  .00000527  00000-0  54281-4 0  9993","ELEMENT_SET_NO":"999","MEAN_ELEMENT_THEORY":"SGP4","ARG_OF_PERICENTER":"85.2823","MEAN_MOTION":"15.06402330"},{"MEAN_ANOMALY":"275.8325","CENTER_NAME":"EARTH","EPOCH":"2021-11-17T21:11:59.476992","MEAN_MOTION_DOT":"-0.00001244","REV_AT_EPOCH":"3887","MEAN_ELEMENT_THEORY":"SGP4","TLE_LINE1":"1 47896U 21021AN  21321.88332728 -.00001244  00000-0 -64660-4 0  9999","ELEMENT_SET_NO":"999","ECCENTRICITY":"0.00017810","MEAN_MOTION":"15.06393592","ARG_OF_PERICENTER":"84.2867","REF_FRAME":"TEME","OBJECT_ID":"2021-021AN","PERIAPSIS":"546.000","MEAN_MOTION_DDOT":"0.0000000000000","EPHEMERIS_TYPE":"0","SEMIMAJOR_AXIS":"6925.368","LAUNCH_DATE":"2021-03-14","PERIOD":"95.593","COUNTRY_CODE":"US","SITE":"AFETR","BSTAR":"-0.00006466000000","APOAPSIS":"548.467","GP_ID":"189977492","INCLINATION":"53.0596","CLASSIFICATION_TYPE":"U","OBJECT_TYPE":"PAYLOAD","NORAD_CAT_ID":"47896","TIME_SYSTEM":"UTC","DECAY_DATE":null,"FILE":"3217982","TLE_LINE2":"2 47896  53.0596 147.1783 0001781  84.2867 275.8325 15.06393592 38878","RCS_SIZE":"LARGE","OBJECT_NAME":"STARLINK-2356","RA_OF_ASC_NODE":"147.1783"},{"ARG_OF_PERICENTER":"79.1529","MEAN_MOTION":"15.06403224","ELEMENT_SET_NO":"999","TLE_LINE1":"1 47897U 21021AP  21321.88928069  .00000145  00000-0  28633-4 0  9996","ECCENTRICITY":"0.00015870","MEAN_ELEMENT_THEORY":"SGP4","REV_AT_EPOCH":"3914","MEAN_MOTION_DOT":"0.00000145","EPOCH":"2021-11-17T21:20:33.851616","MEAN_ANOMALY":"280.9639","CENTER_NAME":"EARTH","SEMIMAJOR_AXIS":"6925.339","LAUNCH_DATE":"2021-03-14","PERIOD":"95.592","SITE":"AFETR","COUNTRY_CODE":"US","EPHEMERIS_TYPE":"0","PERIAPSIS":"546.105","MEAN_MOTION_DDOT":"0.0000000000000","OBJECT_ID":"2021-021AP","REF_FRAME":"TEME","OBJECT_TYPE":"PAYLOAD","CLASSIFICATION_TYPE":"U","GP_ID":"189977745","INCLINATION":"53.0532","BSTAR":"0.00002863300000","APOAPSIS":"548.303","OBJECT_NAME":"STARLINK-2357","RA_OF_ASC_NODE":"132.2168","TLE_LINE2":"2 47897  53.0532 132.2168 0001587  79.1529 280.9639 15.06403224 39143","RCS_SIZE":"MEDIUM","FILE":"3217982","DECAY_DATE":null,"NORAD_CAT_ID":"47897","TIME_SYSTEM":"UTC"},{"COUNTRY_CODE":"US","SITE":"AFETR","PERIOD":"95.593","LAUNCH_DATE":"2021-03-14","SEMIMAJOR_AXIS":"6925.380","REF_FRAME":"TEME","OBJECT_ID":"2021-021AQ","MEAN_MOTION_DDOT":"0.0000000000000","PERIAPSIS":"546.076","EPHEMERIS_TYPE":"0","MEAN_ELEMENT_THEORY":"SGP4","ECCENTRICITY":"0.00016890","ELEMENT_SET_NO":"999","TLE_LINE1":"1 47898U 21021AQ  21321.88287986  .00000647  00000-0  62376-4 0  9992","MEAN_MOTION":"15.06389667","ARG_OF_PERICENTER":"77.9983","CENTER_NAME":"EARTH","MEAN_ANOMALY":"282.1195","EPOCH":"2021-11-17T21:11:20.819904","REV_AT_EPOCH":"3908","MEAN_MOTION_DOT":"0.00000647","FILE":"3217982","RCS_SIZE":"LARGE","TLE_LINE2":"2 47898  53.0564 132.2255 0001689  77.9983 282.1195 15.06389667 39087","OBJECT_NAME":"STARLINK-2358","RA_OF_ASC_NODE":"132.2255","TIME_SYSTEM":"UTC","NORAD_CAT_ID":"47898","DECAY_DATE":null,"OBJECT_TYPE":"PAYLOAD","APOAPSIS":"548.415","BSTAR":"0.00006237600000","INCLINATION":"53.0564","GP_ID":"189975993","CLASSIFICATION_TYPE":"U"},{"NORAD_CAT_ID":"47899","TIME_SYSTEM":"UTC","DECAY_DATE":null,"FILE":"3217982","RA_OF_ASC_NODE":"122.5312","OBJECT_NAME":"STARLINK-2359","TLE_LINE2":"2 47899  53.0558 122.5312 0001370  76.1894 283.9248 15.06398798 39270","RCS_SIZE":"MEDIUM","BSTAR":"0.00006180400000","APOAPSIS":"548.166","CLASSIFICATION_TYPE":"U","INCLINATION":"53.0558","GP_ID":"189976243","OBJECT_TYPE":"PAYLOAD","OBJECT_ID":"2021-021AR","REF_FRAME":"TEME","EPHEMERIS_TYPE":"0","PERIAPSIS":"546.268","MEAN_MOTION_DDOT":"0.0000000000000","PERIOD":"95.592","LAUNCH_DATE":"2021-03-14","SEMIMAJOR_AXIS":"6925.352","COUNTRY_CODE":"US","SITE":"AFETR","MEAN_ANOMALY":"283.9248","CENTER_NAME":"EARTH","MEAN_MOTION_DOT":"0.00000639","REV_AT_EPOCH":"3927","EPOCH":"2021-11-17T19:31:48.152064","TLE_LINE1":"1 47899U 21021AR  21321.81375176  .00000639  00000-0  61804-4 0  9991","ELEMENT_SET_NO":"999","ECCENTRICITY":"0.00013700","MEAN_ELEMENT_THEORY":"SGP4","ARG_OF_PERICENTER":"76.1894","MEAN_MOTION":"15.06398798"}];
